CTC1_L_00549001-01
1 10000U 26914LT  26075.70038194  .00000000  00000+0  00000-0 0  9994
2 10000  97.5000   0.0000 0000000   0.0000   0.0000 15.38683946    18
CTC1_L_00549001-02
1 10001U 26175AI  26075.70038194  .00000000  00000+0  00000-0 0  9994
2 10001  97.5000   0.0000 0000000   0.0000 180.0000 15.38683946    18
CTC1_L_00549002-01
1 10002U 22589RJ  26075.70038194  .00000000  00000+0  00000-0 0  9990
2 10002  97.5000  12.0000 0000000   0.0000  24.0000 15.38683946    19
CTC1_L_00549002-02
1 10003U 26788FC  26075.70038194  .00000000  00000+0  00000-0 0  9996
2 10003  97.5000  12.0000 0000000   0.0000 204.0000 15.38683946    10
CTC1_L_00549003-01
1 10004U 25731DM  26075.70038194  .00000000  00000+0  00000-0 0  9994
2 10004  97.5000  24.0000 0000000   0.0000  48.0000 15.38683946    10
CTC1_L_00549003-02
1 10005U 24569JE  26075.70038194  .00000000  00000+0  00000-0 0  9993
2 10005  97.5000  24.0000 0000000   0.0000 228.0000 15.38683946    11
CTC1_L_00549004-01
1 10006U 25765AO  26075.70038194  .00000000  00000+0  00000-0 0  9993
2 10006  97.5000  36.0000 0000000   0.0000  72.0000 15.38683946    12
CTC1_L_00549004-02
1 10007U 26640QW  26075.70038194  .00000000  00000+0  00000-0 0  9997
2 10007  97.5000  36.0000 0000000   0.0000 252.0000 15.38683946    13
CTC1_L_00549005-01
1 10008U 23074GB  26075.70038194  .00000000  00000+0  00000-0 0  9996
2 10008  97.5000  48.0000 0000000   0.0000  96.0000 15.38683946    13
CTC1_L_00549005-02
1 10009U 25331ST  26075.70038194  .00000000  00000+0  00000-0 0  9995
2 10009  97.5000  48.0000 0000000   0.0000 276.0000 15.38683946    14
CTC1_L_00549006-01
1 10010U 24699QH  26075.70038194  .00000000  00000+0  00000-0 0  9993
2 10010  97.5000  60.0000 0000000   0.0000 120.0000 15.38683946    18
CTC1_L_00549006-02
1 10011U 22667OR  26075.70038194  .00000000  00000+0  00000-0 0  9997
2 10011  97.5000  60.0000 0000000   0.0000 300.0000 15.38683946    19
CTC1_L_00549007-01
1 10012U 26135IL  26075.70038194  .00000000  00000+0  00000-0 0  9992
2 10012  97.5000  72.0000 0000000   0.0000 144.0000 15.38683946    19
CTC1_L_00549007-02
1 10013U 24940QM  26075.70038194  .00000000  00000+0  00000-0 0  9995
2 10013  97.5000  72.0000 0000000   0.0000 324.0000 15.38683946    10
CTC1_L_00549008-01
1 10014U 22978UO  26075.70038194  .00000000  00000+0  00000-0 0  9995
2 10014  97.5000  84.0000 0000000   0.0000 168.0000 15.38683946    10
CTC1_L_00549008-02
1 10015U 22931IA  26075.70038194  .00000000  00000+0  00000-0 0  9995
2 10015  97.5000  84.0000 0000000   0.0000 348.0000 15.38683946    11
CTC1_L_00549009-01
1 10016U 26760UX  26075.70038194  .00000000  00000+0  00000-0 0  9990
2 10016  97.5000  96.0000 0000000   0.0000 192.0000 15.38683946    12
CTC1_L_00549009-02
1 10017U 24371YT  26075.70038194  .00000000  00000+0  00000-0 0  9997
2 10017  97.5000  96.0000 0000000   0.0000  12.0000 15.38683946    14
CTC1_L_00549010-01
1 10018U 23152CM  26075.70038194  .00000000  00000+0  00000-0 0  9994
2 10018  97.5000 108.0000 0000000   0.0000 216.0000 15.38683946    15
CTC1_L_00549010-02
1 10019U 26401HY  26075.70038194  .00000000  00000+0  00000-0 0  9995
2 10019  97.5000 108.0000 0000000   0.0000  36.0000 15.38683946    16
CTC1_L_00549011-01
1 10020U 25380SB  26075.70038194  .00000000  00000+0  00000-0 0  9992
2 10020  97.5000 120.0000 0000000   0.0000 240.0000 15.38683946    19
CTC1_L_00549011-02
1 10021U 23692LE  26075.70038194  .00000000  00000+0  00000-0 0  9997
2 10021  97.5000 120.0000 0000000   0.0000  60.0000 15.38683946    10
CTC1_L_00549012-01
1 10022U 22453NI  26075.70038194  .00000000  00000+0  00000-0 0  9992
2 10022  97.5000 132.0000 0000000   0.0000 264.0000 15.38683946    10
CTC1_L_00549012-02
1 10023U 26078BI  26075.70038194  .00000000  00000+0  00000-0 0  9990
2 10023  97.5000 132.0000 0000000   0.0000  84.0000 15.38683946    11
CTC1_L_00549013-01
1 10024U 25792RZ  26075.70038194  .00000000  00000+0  00000-0 0  9993
2 10024  97.5000 144.0000 0000000   0.0000 288.0000 15.38683946    11
CTC1_L_00549013-02
1 10025U 23365TR  26075.70038194  .00000000  00000+0  00000-0 0  9998
2 10025  97.5000 144.0000 0000000   0.0000 108.0000 15.38683946    13
CTC1_L_00549014-01
1 10026U 23210UG  26075.70038194  .00000000  00000+0  00000-0 0  9998
2 10026  97.5000 156.0000 0000000   0.0000 312.0000 15.38683946    14
CTC1_L_00549014-02
1 10027U 24963PS  26075.70038194  .00000000  00000+0  00000-0 0  9995
2 10027  97.5000 156.0000 0000000   0.0000 132.0000 15.38683946    15
CTC1_L_00549015-01
1 10028U 25087LU  26075.70038194  .00000000  00000+0  00000-0 0  9994
2 10028  97.5000 168.0000 0000000   0.0000 336.0000 15.38683946    15
CTC1_L_00549015-02
1 10029U 26648SJ  26075.70038194  .00000000  00000+0  00000-0 0  9999
2 10029  97.5000 168.0000 0000000   0.0000 156.0000 15.38683946    16
CTC1_L_00549016-01
1 10030U 25278HW  26075.70038194  .00000000  00000+0  00000-0 0  9999
2 10030  97.5000 180.0000 0000000   0.0000   0.0000 15.38683946    10
CTC1_L_00549016-02
1 10031U 23712XW  26075.70038194  .00000000  00000+0  00000-0 0  9991
2 10031  97.5000 180.0000 0000000   0.0000 180.0000 15.38683946    10
CTC1_L_00549017-01
1 10032U 22455H   26075.70038194  .00000000  00000+0  00000-0 0  9995
2 10032  97.5000 192.0000 0000000   0.0000  24.0000 15.38683946    11
CTC1_L_00549017-02
1 10033U 23020SS  26075.70038194  .00000000  00000+0  00000-0 0  9995
2 10033  97.5000 192.0000 0000000   0.0000 204.0000 15.38683946    12
CTC1_L_00549018-01
1 10034U 23189LS  26075.70038194  .00000000  00000+0  00000-0 0  9992
2 10034  97.5000 204.0000 0000000   0.0000  48.0000 15.38683946    13
CTC1_L_00549018-02
1 10035U 24504AN  26075.70038194  .00000000  00000+0  00000-0 0  9995
2 10035  97.5000 204.0000 0000000   0.0000 228.0000 15.38683946    14
CTC1_L_00549019-01
1 10036U 25171LD  26075.70038194  .00000000  00000+0  00000-0 0  9997
2 10036  97.5000 216.0000 0000000   0.0000  72.0000 15.38683946    15
CTC1_L_00549019-02
1 10037U 22342PB  26075.70038194  .00000000  00000+0  00000-0 0  9995
2 10037  97.5000 216.0000 0000000   0.0000 252.0000 15.38683946    16
CTC1_L_00549020-01
1 10038U 25754CG  26075.70038194  .00000000  00000+0  00000-0 0  9996
2 10038  97.5000 228.0000 0000000   0.0000  96.0000 15.38683946    16
CTC1_L_00549020-02
1 10039U 25298YC  26075.70038194  .00000000  00000+0  00000-0 0  9990
2 10039  97.5000 228.0000 0000000   0.0000 276.0000 15.38683946    17
CTC1_L_00549021-01
1 10040U 23196QC  26075.70038194  .00000000  00000+0  00000-0 0  9997
2 10040  97.5000 240.0000 0000000   0.0000 120.0000 15.38683946    11
CTC1_L_00549021-02
1 10041U 23813DJ  26075.70038194  .00000000  00000+0  00000-0 0  9994
2 10041  97.5000 240.0000 0000000   0.0000 300.0000 15.38683946    12
CTC1_L_00549022-01
1 10042U 24090TF  26075.70038194  .00000000  00000+0  00000-0 0  9993
2 10042  97.5000 252.0000 0000000   0.0000 144.0000 15.38683946    12
CTC1_L_00549022-02
1 10043U 22620QS  26075.70038194  .00000000  00000+0  00000-0 0  9991
2 10043  97.5000 252.0000 0000000   0.0000 324.0000 15.38683946    13
CTC1_L_00549023-01
1 10044U 22511UM  26075.70038194  .00000000  00000+0  00000-0 0  9991
2 10044  97.5000 264.0000 0000000   0.0000 168.0000 15.38683946    13
CTC1_L_00549023-02
1 10045U 22485HS  26075.70038194  .00000000  00000+0  00000-0 0  9992
2 10045  97.5000 264.0000 0000000   0.0000 348.0000 15.38683946    14
CTC1_L_00549024-01
1 10046U 22120ME  26075.70038194  .00000000  00000+0  00000-0 0  9999
2 10046  97.5000 276.0000 0000000   0.0000 192.0000 15.38683946    15
CTC1_L_00549024-02
1 10047U 24873NL  26075.70038194  .00000000  00000+0  00000-0 0  9997
2 10047  97.5000 276.0000 0000000   0.0000  12.0000 15.38683946    17
CTC1_L_00549025-01
1 10048U 26293WF  26075.70038194  .00000000  00000+0  00000-0 0  9996
2 10048  97.5000 288.0000 0000000   0.0000 216.0000 15.38683946    17
CTC1_L_00549025-02
1 10049U 26787AT  26075.70038194  .00000000  00000+0  00000-0 0  9995
2 10049  97.5000 288.0000 0000000   0.0000  36.0000 15.38683946    18
CTC1_L_00549026-01
1 10050U 25897IE  26075.70038194  .00000000  00000+0  00000-0 0  9998
2 10050  97.5000 300.0000 0000000   0.0000 240.0000 15.38683946    12
CTC1_L_00549026-02
1 10051U 23699LQ  26075.70038194  .00000000  00000+0  00000-0 0  9997
2 10051  97.5000 300.0000 0000000   0.0000  60.0000 15.38683946    13
CTC1_L_00549027-01
1 10052U 25011CU  26075.70038194  .00000000  00000+0  00000-0 0  9998
2 10052  97.5000 312.0000 0000000   0.0000 264.0000 15.38683946    13
CTC1_L_00549027-02
1 10053U 23979FS  26075.70038194  .00000000  00000+0  00000-0 0  9990
2 10053  97.5000 312.0000 0000000   0.0000  84.0000 15.38683946    14
CTC1_L_00549028-01
1 10054U 24896TD  26075.70038194  .00000000  00000+0  00000-0 0  9990
2 10054  97.5000 324.0000 0000000   0.0000 288.0000 15.38683946    14
CTC1_L_00549028-02
1 10055U 26354XU  26075.70038194  .00000000  00000+0  00000-0 0  9992
2 10055  97.5000 324.0000 0000000   0.0000 108.0000 15.38683946    16
CTC1_L_00549029-01
1 10056U 24772CP  26075.70038194  .00000000  00000+0  00000-0 0  9995
2 10056  97.5000 336.0000 0000000   0.0000 312.0000 15.38683946    17
CTC1_L_00549029-02
1 10057U 22400KA  26075.70038194  .00000000  00000+0  00000-0 0  9992
2 10057  97.5000 336.0000 0000000   0.0000 132.0000 15.38683946    18
CTC1_L_00549030-01
1 10058U 22283BU  26075.70038194  .00000000  00000+0  00000-0 0  9992
2 10058  97.5000 348.0000 0000000   0.0000 336.0000 15.38683946    18
CTC1_L_00549030-02
1 10059U 22060FF  26075.70038194  .00000000  00000+0  00000-0 0  9996
2 10059  97.5000 348.0000 0000000   0.0000 156.0000 15.38683946    19
